{
  "norad_id": 59581,
  "name": "STARLINK-31690",
  "history": [
    {
      "epoch": "2026-03-28T20:11:06.955872Z",
      "apogee_km": 483.87543376286976,
      "perigee_km": 482.2121463157473,
      "latitude_deg": 4.90754144916066e-05,
      "longitude_deg": 131.6298542355878,
      "height_km": 482.7424022441563,
      "semi_major_axis_km": 6861.180790039308,
      "eccentricity": 0.00012121,
      "inclination_deg": 42.9994,
      "raan_deg": 260.6645,
      "arg_perigee_deg": 275.3724,
      "mean_anomaly_deg": 84.699,
      "mean_motion_rev_day": 15.27581772
    },
    {
      "epoch": "2026-03-29T04:01:55.263072Z",
      "apogee_km": 484.0825594561293,
      "perigee_km": 482.3751771734587,
      "latitude_deg": 1.9480647410401174e-05,
      "longitude_deg": 11.761088042813913,
      "height_km": 483.2814268909856,
      "semi_major_axis_km": 6861.365868314794,
      "eccentricity": 0.00012442,
      "inclination_deg": 43.0002,
      "raan_deg": 258.8193,
      "arg_perigee_deg": 251.1332,
      "mean_anomaly_deg": 108.9385,
      "mean_motion_rev_day": 15.27519965
    },
    {
      "epoch": "2026-03-30T19:15:48.099456Z",
      "apogee_km": 483.73663481081985,
      "perigee_km": 482.3399739658571,
      "latitude_deg": -1.8900611392119215e-05,
      "longitude_deg": 132.44602283697097,
      "height_km": 482.70903381609315,
      "semi_major_axis_km": 6861.175304388338,
      "eccentricity": 0.00010178,
      "inclination_deg": 42.9994,
      "raan_deg": 249.5856,
      "arg_perigee_deg": 278.6963,
      "mean_anomaly_deg": 81.3773,
      "mean_motion_rev_day": 15.27583604
    },
    {
      "epoch": "2026-03-31T17:14:00.828960Z",
      "apogee_km": 483.8956300521504,
      "perigee_km": 482.2722651759441,
      "latitude_deg": -1.0200504400685113e-05,
      "longitude_deg": 156.8228095906281,
      "height_km": 482.6610013425011,
      "semi_major_axis_km": 6861.220947614047,
      "eccentricity": 0.0001183,
      "inclination_deg": 43.0001,
      "raan_deg": 244.4177,
      "arg_perigee_deg": 284.2265,
      "mean_anomaly_deg": 75.8455,
      "mean_motion_rev_day": 15.27568361
    },
    {
      "epoch": "2026-04-01T16:46:20.605440Z",
      "apogee_km": 483.6887141203606,
      "perigee_km": 482.3631374430988,
      "latitude_deg": -2.343121786406781e-05,
      "longitude_deg": 157.23468947154296,
      "height_km": 482.66283837282396,
      "semi_major_axis_km": 6861.162925781729,
      "eccentricity": 9.66e-05,
      "inclination_deg": 42.9995,
      "raan_deg": 238.8787,
      "arg_perigee_deg": 282.1381,
      "mean_anomaly_deg": 77.9362,
      "mean_motion_rev_day": 15.27587738
    },
    {
      "epoch": "2026-04-02T16:18:41.250240Z",
      "apogee_km": 483.42545735150907,
      "perigee_km": 482.66249402701123,
      "latitude_deg": 5.840128143684438e-05,
      "longitude_deg": 157.64604241156346,
      "height_km": 482.74484615885643,
      "semi_major_axis_km": 6861.18097568926,
      "eccentricity": 5.56e-05,
      "inclination_deg": 43.0018,
      "raan_deg": 233.3427,
      "arg_perigee_deg": 281.3808,
      "mean_anomaly_deg": 78.6982,
      "mean_motion_rev_day": 15.2758171
    },
    {
      "epoch": "2026-04-03T17:25:14.245248Z",
      "apogee_km": 484.35317210072753,
      "perigee_km": 481.9311405585431,
      "latitude_deg": -6.625179922045855e-06,
      "longitude_deg": 134.06109726128165,
      "height_km": 482.7174176850851,
      "semi_major_axis_km": 6861.279156329635,
      "eccentricity": 0.0001765,
      "inclination_deg": 42.9989,
      "raan_deg": 227.4265,
      "arg_perigee_deg": 279.5839,
      "mean_anomaly_deg": 80.4813,
      "mean_motion_rev_day": 15.27548922
    },
    {
      "epoch": "2026-04-04T16:57:32.295456Z",
      "apogee_km": 484.2124280074295,
      "perigee_km": 481.8096539634762,
      "latitude_deg": 1.4760118586035285e-05,
      "longitude_deg": 134.48312460308554,
      "height_km": 482.58463755022143,
      "semi_major_axis_km": 6861.148040985452,
      "eccentricity": 0.0001751,
      "inclination_deg": 42.9988,
      "raan_deg": 221.8904,
      "arg_perigee_deg": 279.7406,
      "mean_anomaly_deg": 80.3248,
      "mean_motion_rev_day": 15.27592709
    },
    {
      "epoch": "2026-04-05T14:55:46.498080Z",
      "apogee_km": 483.639107471251,
      "perigee_km": 482.6579436410966,
      "latitude_deg": -5.136389495659965e-06,
      "longitude_deg": 158.85082342405488,
      "height_km": 483.3502267298711,
      "semi_major_axis_km": 6861.2855255561735,
      "eccentricity": 7.15e-05,
      "inclination_deg": 42.9977,
      "raan_deg": 216.7196,
      "arg_perigee_deg": 209.6721,
      "mean_anomaly_deg": 150.409,
      "mean_motion_rev_day": 15.27546795
    },
    {
      "epoch": "2026-04-05T14:55:46.498944Z",
      "apogee_km": 483.639107471251,
      "perigee_km": 482.6579436410966,
      "latitude_deg": -5.1394248264115965e-06,
      "longitude_deg": 158.8508198109676,
      "height_km": 483.35022673024923,
      "semi_major_axis_km": 6861.2855255561735,
      "eccentricity": 7.15e-05,
      "inclination_deg": 42.9977,
      "raan_deg": 216.7196,
      "arg_perigee_deg": 209.6721,
      "mean_anomaly_deg": 150.409,
      "mean_motion_rev_day": 15.27546795
    },
    {
      "epoch": "2026-04-06T00:20:42.789696Z",
      "apogee_km": 484.0349058786369,
      "perigee_km": 482.189092672852,
      "latitude_deg": 1.4917687262870774e-05,
      "longitude_deg": 15.016909244683303,
      "height_km": 483.12794511755305,
      "semi_major_axis_km": 6861.248999275744,
      "eccentricity": 0.00013451,
      "inclination_deg": 43.001,
      "raan_deg": 214.5069,
      "arg_perigee_deg": 254.9753,
      "mean_anomaly_deg": 105.095,
      "mean_motion_rev_day": 15.27558993
    },
    {
      "epoch": "2026-04-07T07:43:49.211040Z",
      "apogee_km": 483.5871748951686,
      "perigee_km": 482.5176526893474,
      "latitude_deg": 2.2931367373475842e-05,
      "longitude_deg": -104.43308215685477,
      "height_km": 483.1750440725945,
      "semi_major_axis_km": 6861.189413792258,
      "eccentricity": 7.794e-05,
      "inclination_deg": 43.0022,
      "raan_deg": 207.1226,
      "arg_perigee_deg": 229.62,
      "mean_anomaly_deg": 130.4584,
      "mean_motion_rev_day": 15.27578892
    },
    {
      "epoch": "2026-04-07T15:34:36.050304Z",
      "apogee_km": 483.66862555689295,
      "perigee_km": 482.42812324120223,
      "latitude_deg": -7.41909773727278e-06,
      "longitude_deg": 135.70298301224713,
      "height_km": 483.12566739733154,
      "semi_major_axis_km": 6861.185374399048,
      "eccentricity": 9.04e-05,
      "inclination_deg": 43.0021,
      "raan_deg": 205.2761,
      "arg_perigee_deg": 240.9762,
      "mean_anomaly_deg": 119.0999,
      "mean_motion_rev_day": 15.27580241
    },
    {
      "epoch": "2026-04-08T07:16:10.297344Z",
      "apogee_km": 483.6144412391868,
      "perigee_km": 482.4642336379793,
      "latitude_deg": 2.8482074118598553e-05,
      "longitude_deg": -104.02635896769668,
      "height_km": 482.93253496461193,
      "semi_major_axis_km": 6861.176337438583,
      "eccentricity": 8.382e-05,
      "inclination_deg": 43.0005,
      "raan_deg": 201.5839,
      "arg_perigee_deg": 258.2655,
      "mean_anomaly_deg": 101.8103,
      "mean_motion_rev_day": 15.27583259
    }
  ]
}